# Скрипт для получения METAR информации

## Описание
Этот скрипт запрашивает METAR информацию для аэропорта Пулково (ULLI) с сайта [metartaf.pro](https://www.metartaf.pro/ULLI) и выводит её в консоль.

## Зависимости
- curl: утилита для выполнения HTTP-запросов.
- Доступ в интернет.

## Установка
1. Клонируйте репозиторий:
   `bash
   git clone git@github.com:NikitaVlasov4/METAR.git
   cd METAR

2. Убедитесь, что у скрипта есть права на выполнение:

chmod +x metar.sh

Использование

1. Для получения METAR информации:

./metar.sh

2. Для автоматического обновления каждые 15 минут:

./metar.sh --upd 900

Пример вывода

Исходные данные: ULLI 171433Z 22002MPS 9999 SCT007 03/01 Q1016 R88/290050 NOSIG
Расшифровка:
1) Аэропорт: ULLI (Пулково, ULLI)
2) Время: 17:14:33 UTC (33 сек)
3) Ветер: Направление: 220°, Скорость: 02 м/с
4) Видимость: Более 10 км
5) Погода: Облачность (SCT): на высоте 700 футов
6) Температура и точка росы: Температура: 03°C, Точка росы: 01°C
7) Давление: 1016 гПа (нормальное давление: 1013 гПа)
8) Условия на ВПП: R88/290050
9) Прогноз изменений: NOSIG
